NORAD_CAT_ID,OBJECT_NAME,OBJECT_TYPE,EPOCH,MEAN_MOTION,ECCENTRICITY,INCLINATION,RA_OF_ASC_NODE,ARG_OF_PERICENTER,MEAN_ANOMALY,BSTAR,MEAN_MOTION_DOT,MEAN_MOTION_DDOT,TLE_LINE0,TLE_LINE1,TLE_LINE2,SEMIMAJOR_AXIS,PERIOD,APOGEE,PERIGEE,DECAYED
51816.0,STARLINK-3603,PAYLOAD,2023-04-11 01:47:47,15.08838349,9.44e-05,53.2169,63.8699,97.8854,262.2245,9.8407e-05,1.279e-05,0.0,0 STARLINK-3603,1 51816U 22017BA  23101.07485725  .00001279  00000-0  98407-4 0  9999,2 51816  53.2169  63.8699 0000944  97.8854 262.2245 15.08838349 63683,6917.885,95.438,540.403,539.097,0.0
51816.0,STARLINK-3603,PAYLOAD,2023-04-11 06:33:56,15.08845742,0.0001109,53.2164,62.9775,95.3485,264.7634,7.74e-05,9.44e-06,0.0,0 STARLINK-3603,1 51816U 22017BA  23101.27357317  .00000944  00000-0  77400-4 0  9994,2 51816  53.2164  62.9775 0001109  95.3485 264.7634 15.08845742 63594,6917.863,95.437,540.495,538.961,0.0
51816.0,STARLINK-3603,PAYLOAD,2023-04-12 06:24:43,15.08845621,0.0001078,53.2179,58.5172,88.9653,271.1463,6.0911e-05,6.82e-06,0.0,0 STARLINK-3603,1 51816U 22017BA  23102.26717573  .00000682  00000-0  60911-4 0  9996,2 51816  53.2179  58.5172 0001078  88.9653 271.1463 15.08845621 63747,6917.863,95.437,540.474,538.982,0.0
51816.0,STARLINK-3603,PAYLOAD,2023-04-13 03:04:45,15.08840391,0.0001067,53.2181,54.649,89.2182,270.8932,2.2814e-05,7.5e-07,0.0,0 STARLINK-3603,1 51816U 22017BA  23103.12830073  .00000075  00000-0  22814-4 0  9999,2 51816  53.2181  54.6490 0001067  89.2182 270.8932 15.08840391 63879,6917.879,95.438,540.482,539.006,0.0
51816.0,STARLINK-3603,PAYLOAD,2023-04-13 14:12:26,15.08847831,0.0001127,53.2181,52.57,81.2858,278.8262,5.3807e-05,5.69e-06,0.0,0 STARLINK-3603,1 51816U 22017BA  23103.59197475  .00000569  00000-0  53807-4 0  9996,2 51816  53.2181  52.5700 0001127  81.2858 278.8262 15.08847831 64061,6917.856,95.437,540.501,538.942,0.0
51816.0,STARLINK-3603,PAYLOAD,2023-04-14 06:06:17,15.08852864,0.0001293,53.2178,49.5958,99.1694,260.9445,0.00011515,1.546e-05,0.0,0 STARLINK-3603,1 51816U 22017BA  23104.25437044  .00001546  00000-0  11515-3 0  9994,2 51816  53.2178  49.5958 0001293  99.1694 260.9445 15.08852864 64043,6917.841,95.437,540.601,538.812,0.0
51816.0,STARLINK-3603,PAYLOAD,2023-04-15 02:46:19,15.08845546,0.0001032,53.2185,45.7326,98.253,261.858,7.2e-05,8.58e-06,0.0,0 STARLINK-3603,1 51816U 22017BA  23105.11549884  .00000858  00000-0  72000-4 0  9998,2 51816  53.2185  45.7326 0001032  98.2530 261.8580 15.08845546 64294,6917.863,95.437,540.442,539.015,0.0
51816.0,STARLINK-3603,PAYLOAD,2023-04-15 05:57:05,15.08847518,0.0001027,53.2179,45.1365,99.8742,260.2366,8.7721e-05,1.109e-05,0.0,0 STARLINK-3603,1 51816U 22017BA  23105.24797694  .00001109  00000-0  87721-4 0  9992,2 51816  53.2179  45.1365 0001027  99.8742 260.2366 15.08847518 64195,6917.857,95.437,540.433,539.012,0.0
51816.0,STARLINK-3603,PAYLOAD,2023-04-16 05:47:51,15.08859544,0.0001015,53.2181,40.6762,115.2321,244.8777,9.9753e-05,1.301e-05,0.0,0 STARLINK-3603,1 51816U 22017BA  23106.24156694  .00001301  00000-0  99753-4 0  9994,2 51816  53.2181  40.6762 0001015 115.2321 244.8777 15.08859544 64468,6917.821,95.436,540.388,538.983,0.0
51816.0,STARLINK-3603,PAYLOAD,2023-04-17 04:03:16,15.08839683,8.52e-05,53.2184,36.5135,113.8584,246.2498,2.1665e-05,5.7e-07,0.0,0 STARLINK-3603,1 51816U 22017BA  23107.16894571  .00000057  00000-0  21665-4 0  9993,2 51816  53.2184  36.5135 0000852 113.8584 246.2498 15.08839683 64606,6917.881,95.438,540.336,539.157,0.0
51816.0,STARLINK-3603,PAYLOAD,2023-04-17 05:38:40,15.08840009,8.5e-05,53.2184,36.2162,113.7105,246.3976,2.4256e-05,9.8e-07,0.0,0 STARLINK-3603,1 51816U 22017BA  23107.23518566  .00000098  00000-0  24256-4 0  9992,2 51816  53.2184  36.2162 0000850 113.7105 246.3976 15.08840009 64492,6917.88,95.438,540.333,539.157,0.0
51816.0,STARLINK-3603,PAYLOAD,2023-04-17 19:57:08,15.08842394,8.91e-05,53.2189,33.5406,123.1461,236.9617,-6.1024e-05,-1.259e-05,0.0,0 STARLINK-3603,1 51816U 22017BA  23107.83135078 -.00001259  00000-0 -61024-4 0  9997,2 51816  53.2189  33.5406 0000891 123.1461 236.9617 15.08842394 64589,6917.873,95.437,540.354,539.122,0.0
51816.0,STARLINK-3603,PAYLOAD,2023-04-18 05:29:26,15.08853576,9.56e-05,53.2183,31.7552,116.3057,243.8034,4.572e-05,4.4e-06,0.0,0 STARLINK-3603,1 51816U 22017BA  23108.22877836  .00000440  00000-0  45720-4 0  9990,2 51816  53.2183  31.7552 0000956 116.3057 243.8034 15.08853576 64766,6917.839,95.437,540.365,539.043,0.0
51816.0,STARLINK-3603,PAYLOAD,2023-04-19 03:44:51,15.08843599,8.52e-05,53.2177,27.5909,105.2482,254.8605,8.2986e-05,1.033e-05,0.0,0 STARLINK-3603,1 51816U 22017BA  23109.15614840  .00001033  00000-0  82986-4 0  9991,2 51816  53.2177  27.5909 0000852 105.2482 254.8605 15.08843599 64908,6917.869,95.437,540.324,539.145,0.0
51816.0,STARLINK-3603,PAYLOAD,2023-04-20 03:35:37,15.088518,8.5e-05,53.2179,23.1313,89.7545,270.3544,0.00011317,1.514e-05,0.0,0 STARLINK-3603,1 51816U 22017BA  23110.14974180  .00001514  00000-0  11317-3 0  9991,2 51816  53.2179  23.1313 0000850  89.7545 270.3544 15.08851800 64937,6917.844,95.437,540.297,539.121,0.0
51816.0,STARLINK-3603,PAYLOAD,2023-04-21 00:15:39,15.08834936,9.08e-05,53.2185,19.2656,89.0254,271.0842,-1.7262e-05,-5.62e-06,0.0,0 STARLINK-3603,1 51816U 22017BA  23111.01087795 -.00000562  00000-0 -17262-4 0  9995,2 51816  53.2185  19.2656 0000908  89.0254 271.0842 15.08834936 65182,6917.896,95.438,540.389,539.133,0.0
51816.0,STARLINK-3603,PAYLOAD,2023-04-21 11:23:21,15.08838624,9.48e-05,53.2184,17.1849,87.048,273.0621,1.8259e-05,3e-08,0.0,0 STARLINK-3603,1 51816U 22017BA  23111.47455558  .00000003  00000-0  18259-4 0  9996,2 51816  53.2184  17.1849 0000948  87.0480 273.0621 15.08838624 65135,6917.885,95.438,540.405,539.094,0.0
51816.0,STARLINK-3603,PAYLOAD,2023-04-21 17:44:54,15.08843279,8.95e-05,53.2183,15.9957,77.2736,282.8356,-1.1325e-05,-4.68e-06,0.0,0 STARLINK-3603,1 51816U 22017BA  23111.73951484 -.00000468  00000-0 -11325-4 0  9998,2 51816  53.2183  15.9957 0000895  77.2736 282.8356 15.08843279 65298,6917.87,95.437,540.355,539.116,0.0
51816.0,STARLINK-3603,PAYLOAD,2023-04-22 23:57:13,15.08844115,9.21e-05,53.2185,10.3461,96.4478,263.6619,0.00013989,1.94e-05,0.0,0 STARLINK-3603,1 51816U 22017BA  23112.99806722  .00001940  00000-0  13989-3 0  9992,2 51816  53.2185  10.3461 0000921  96.4478 263.6619 15.08844115 65362,6917.868,95.437,540.37,539.096,0.0
51816.0,STARLINK-3603,PAYLOAD,2023-04-23 23:48:00,15.08841911,0.0001334,53.2195,5.8888,85.4391,274.6754,2.7057e-05,1.43e-06,0.0,0 STARLINK-3603,1 51816U 22017BA  23113.99167258  .00000143  00000-0  27057-4 0  9993,2 51816  53.2195   5.8888 0001334  85.4391 274.6754 15.08841911 65639,6917.875,95.437,540.662,538.817,0.0
51816.0,STARLINK-3603,PAYLOAD,2023-04-25 02:49:30,15.0886921,0.0001182,53.2184,0.8315,96.5261,263.5865,0.00022704,3.33e-05,0.0,0 STARLINK-3603,1 51816U 22017BA  23115.11771919  .00003330  00000-0  22704-3 0  9998,2 51816  53.2184   0.8315 0001182  96.5261 263.5865 15.08869210 65808,6917.791,95.436,540.474,538.838,0.0
51816.0,STARLINK-3603,PAYLOAD,2023-04-26 05:51:08,15.08809851,0.0001291,53.2187,355.7766,61.6362,298.476,-0.00045776,-7.56e-05,0.0,0 STARLINK-3603,1 51816U 22017BA  23116.24384313 -.00007560  00000-0 -45776-3 0  9996,2 51816  53.2187 355.7766 0001291  61.6362 298.4760 15.08809851 65850,6917.973,95.439,540.731,538.944,0.0
51816.0,STARLINK-3603,PAYLOAD,2023-04-26 20:09:36,15.08819384,0.0001026,53.2166,353.0996,98.0327,262.0781,5.6747e-05,6.15e-06,0.0,0 STARLINK-3603,1 51816U 22017BA  23116.84000410  .00000615  00000-0  56747-4 0  9998,2 51816  53.2166 353.0996 0001026  98.0327 262.0781 15.08819384 65946,6917.943,95.439,540.518,539.099,0.0
51816.0,STARLINK-3603,PAYLOAD,2023-04-28 00:46:32,15.0885983,0.0001206,53.218,347.7458,73.1143,286.9982,0.00064767,0.0001004,0.0,0 STARLINK-3603,1 51816U 22017BA  23118.03231624  .00010040  00000-0  64767-3 0  9997,2 51816  53.2180 347.7458 0001206  73.1143 286.9982 15.08859830 66247,6917.82,95.436,540.519,538.85,0.0
51816.0,STARLINK-3603,PAYLOAD,2023-04-28 08:43:28,15.08850883,0.0001039,53.217,346.2602,79.0011,281.1098,0.00039633,6.027e-05,0.0,0 STARLINK-3603,1 51816U 22017BA  23118.36351998  .00006027  00000-0  39633-3 0  9994,2 51816  53.2170 346.2602 0001039  79.0011 281.1098 15.08850883 66293,6917.847,95.437,540.431,538.993,0.0
51816.0,STARLINK-3603,PAYLOAD,2023-04-29 00:37:19,15.08848948,0.0001099,53.2174,343.2861,89.5448,270.567,0.00018502,2.659e-05,0.0,0 STARLINK-3603,1 51816U 22017BA  23119.02591763  .00002659  00000-0  18502-3 0  9993,2 51816  53.2174 343.2861 0001099  89.5448 270.5670 15.08848948 66395,6917.853,95.437,540.478,538.958,0.0
51816.0,STARLINK-3603,PAYLOAD,2023-04-29 02:12:42,15.0884878,0.0001074,53.2173,342.9894,87.9336,272.1779,0.00046086,7.056e-05,0.0,0 STARLINK-3603,1 51816U 22017BA  23119.09215749  .00007056  00000-0  46086-3 0  9991,2 51816  53.2173 342.9894 0001074  87.9336 272.1779 15.08848780 66287,6917.854,95.437,540.462,538.976,0.0
51816.0,STARLINK-3603,PAYLOAD,2023-04-29 18:06:33,15.08844504,0.00012,53.2174,340.016,90.1234,269.9896,0.00042257,6.445e-05,0.0,0 STARLINK-3603,1 51816U 22017BA  23119.75455944  .00006445  00000-0  42257-3 0  9994,2 51816  53.2174 340.0160 0001200  90.1234 269.9896 15.08844504 66506,6917.867,95.437,540.562,538.901,0.0
51816.0,STARLINK-3603,PAYLOAD,2023-04-30 14:46:34,15.08842021,0.0001183,53.2175,336.1504,90.5643,269.5485,0.00012951,1.774e-05,0.0,0 STARLINK-3603,1 51816U 22017BA  23120.61567878  .00001774  00000-0  12951-3 0  9999,2 51816  53.2175 336.1504 0001183  90.5643 269.5485 15.08842021 66516,6917.874,95.437,540.558,538.921,0.0
51816.0,STARLINK-3603,PAYLOAD,2023-04-30 17:57:21,15.08827805,9.82e-05,53.2171,335.5554,101.9303,258.1799,-0.0001974,-3.427e-05,0.0,0 STARLINK-3603,1 51816U 22017BA  23120.74816255 -.00003427  00000-0 -19740-3 0  9991,2 51816  53.2171 335.5554 0000982 101.9303 258.1799 15.08827805 66656,6917.918,95.438,540.462,539.103,0.0
